start=new Date('2022-05-17T00:00:00.000Z').valueOf();
sats=[{"REF_FRAME":"TEME","OBJECT_ID":"2021-038N","RCS_SIZE":"LARGE","OBJECT_NAME":"STARLINK-2608","RA_OF_ASC_NODE":"131.7777","SITE":"AFETR","TLE_LINE2":"2 48365  53.0537 131.7777 0002007  56.5139 303.6041 15.06397710 57088","REV_AT_EPOCH":"5708","PERIAPSIS":"545.831","COUNTRY_CODE":"US","OBJECT_TYPE":"PAYLOAD","BSTAR":"-0.00007440100000","ELEMENT_SET_NO":"999","CLASSIFICATION_TYPE":"U","MEAN_ANOMALY":"303.6041","DECAY_DATE":null,"INCLINATION":"53.0537","GP_ID":"203698122","LAUNCH_DATE":"2021-05-04","NORAD_CAT_ID":"48365","CENTER_NAME":"EARTH","MEAN_MOTION":"15.06397710","ECCENTRICITY":"0.00020070","PERIOD":"95.592","SEMIMAJOR_AXIS":"6925.356","MEAN_MOTION_DOT":"-0.00001390","EPOCH":"2022-05-16T07:18:46.653696","TIME_SYSTEM":"UTC","MEAN_MOTION_DDOT":"0.0000000000000","ARG_OF_PERICENTER":"56.5139","TLE_LINE1":"1 48365U 21038N   22136.30470664 -.00001390  00000-0 -74401-4 0  9999","APOAPSIS":"548.610","MEAN_ELEMENT_THEORY":"SGP4","FILE":"3448591","EPHEMERIS_TYPE":"0"},{"APOAPSIS":"548.533","TLE_LINE1":"1 48366U 21038P   22136.69034945  .00000847  00000-0  75766-4 0  9999","FILE":"3448790","MEAN_ELEMENT_THEORY":"SGP4","EPHEMERIS_TYPE":"0","TIME_SYSTEM":"UTC","EPOCH":"2022-05-16T16:34:06.192480","MEAN_MOTION_DOT":"0.00000847","MEAN_MOTION_DDOT":"0.0000000000000","ARG_OF_PERICENTER":"54.7114","SEMIMAJOR_AXIS":"6925.367","ECCENTRICITY":"0.00018790","PERIOD":"95.593","MEAN_MOTION":"15.06393942","NORAD_CAT_ID":"48366","INCLINATION":"53.0555","GP_ID":"203705236","LAUNCH_DATE":"2021-05-04","CENTER_NAME":"EARTH","DECAY_DATE":null,"MEAN_ANOMALY":"305.4050","COUNTRY_CODE":"US","OBJECT_TYPE":"PAYLOAD","PERIAPSIS":"545.931","REV_AT_EPOCH":"5779","CLASSIFICATION_TYPE":"U","ELEMENT_SET_NO":"999","BSTAR":"0.00007576600000","OBJECT_NAME":"STARLINK-2631","RCS_SIZE":"LARGE","REF_FRAME":"TEME","OBJECT_ID":"2021-038P","TLE_LINE2":"2 48366  53.0555 125.0380 0001879  54.7114 305.4050 15.06393942 57795","SITE":"AFETR","RA_OF_ASC_NODE":"125.0380"},{"DECAY_DATE":null,"MEAN_ANOMALY":"299.2618","NORAD_CAT_ID":"48367","INCLINATION":"53.0538","GP_ID":"203697630","LAUNCH_DATE":"2021-05-04","CENTER_NAME":"EARTH","OBJECT_NAME":"STARLINK-2643","RCS_SIZE":"LARGE","OBJECT_ID":"2021-038Q","REF_FRAME":"TEME","TLE_LINE2":"2 48367  53.0538 126.8515 0002114  60.8582 299.2618 15.06406156 57147","SITE":"AFETR","RA_OF_ASC_NODE":"126.8515","OBJECT_TYPE":"PAYLOAD","COUNTRY_CODE":"US","PERIAPSIS":"545.731","REV_AT_EPOCH":"5714","CLASSIFICATION_TYPE":"U","BSTAR":"0.00012626000000","ELEMENT_SET_NO":"999","APOAPSIS":"548.659","TLE_LINE1":"1 48367U 21038Q   22136.28857885  .00001600  00000-0  12626-3 0  9994","EPHEMERIS_TYPE":"0","FILE":"3448591","MEAN_ELEMENT_THEORY":"SGP4","SEMIMAJOR_AXIS":"6925.330","PERIOD":"95.592","ECCENTRICITY":"0.00021140","MEAN_MOTION":"15.06406156","EPOCH":"2022-05-16T06:55:33.212640","TIME_SYSTEM":"UTC","MEAN_MOTION_DOT":"0.00001600","MEAN_MOTION_DDOT":"0.0000000000000","ARG_OF_PERICENTER":"60.8582"},{"PERIOD":"95.592","ECCENTRICITY":"0.00021410","SEMIMAJOR_AXIS":"6925.355","MEAN_MOTION":"15.06398008","MEAN_MOTION_DDOT":"0.0000000000000","ARG_OF_PERICENTER":"48.5688","EPOCH":"2022-05-16T10:31:49.269216","TIME_SYSTEM":"UTC","MEAN_MOTION_DOT":"-0.00001139","MEAN_ELEMENT_THEORY":"SGP4","FILE":"3448661","EPHEMERIS_TYPE":"0","TLE_LINE1":"1 48368U 21038R   22136.43876469 -.00001139  00000-0 -57572-4 0  9990","APOAPSIS":"548.702","RA_OF_ASC_NODE":"126.1596","TLE_LINE2":"2 48368  53.0552 126.1596 0002141  48.5688 311.5485 15.06398008 57760","SITE":"AFETR","OBJECT_NAME":"STARLINK-2623","OBJECT_ID":"2021-038R","REF_FRAME":"TEME","RCS_SIZE":"LARGE","CLASSIFICATION_TYPE":"U","ELEMENT_SET_NO":"999","BSTAR":"-0.00005757200000","COUNTRY_CODE":"US","PERIAPSIS":"545.737","OBJECT_TYPE":"PAYLOAD","REV_AT_EPOCH":"5776","MEAN_ANOMALY":"311.5485","DECAY_DATE":null,"CENTER_NAME":"EARTH","NORAD_CAT_ID":"48368","GP_ID":"203701922","LAUNCH_DATE":"2021-05-04","INCLINATION":"53.0552"},{"OBJECT_NAME":"STARLINK-2641","RCS_SIZE":"LARGE","OBJECT_ID":"2021-038S","REF_FRAME":"TEME","TLE_LINE2":"2 48369  53.0564 126.5610 0002360  49.4556 310.6638 15.06398018 57156","SITE":"AFETR","RA_OF_ASC_NODE":"126.5610","COUNTRY_CODE":"US","PERIAPSIS":"545.585","OBJECT_TYPE":"PAYLOAD","REV_AT_EPOCH":"5715","CLASSIFICATION_TYPE":"U","ELEMENT_SET_NO":"999","BSTAR":"0.00003347100000","DECAY_DATE":null,"MEAN_ANOMALY":"310.6638","NORAD_CAT_ID":"48369","GP_ID":"203698621","INCLINATION":"53.0564","LAUNCH_DATE":"2021-05-04","CENTER_NAME":"EARTH","SEMIMAJOR_AXIS":"6925.355","PERIOD":"95.592","ECCENTRICITY":"0.00023600","MEAN_MOTION":"15.06398018","EPOCH":"2022-05-16T08:25:47.672544","TIME_SYSTEM":"UTC","MEAN_MOTION_DOT":"0.00000217","MEAN_MOTION_DDOT":"0.0000000000000","ARG_OF_PERICENTER":"49.4556","APOAPSIS":"548.854","TLE_LINE1":"1 48369U 21038S   22136.35124621  .00000217  00000-0  33471-4 0  9994","FILE":"3448591","MEAN_ELEMENT_THEORY":"SGP4","EPHEMERIS_TYPE":"0"},{"DECAY_DATE":null,"MEAN_ANOMALY":"318.9935","GP_ID":"203705812","INCLINATION":"53.0551","LAUNCH_DATE":"2021-05-04","NORAD_CAT_ID":"48370","CENTER_NAME":"EARTH","RCS_SIZE":"LARGE","REF_FRAME":"TEME","OBJECT_ID":"2021-038T","OBJECT_NAME":"STARLINK-2621","TLE_LINE2":"2 48370  53.0551 125.0891 0002217  41.1220 318.9935 15.06396799 57792","SITE":"AFETR","RA_OF_ASC_NODE":"125.0891","REV_AT_EPOCH":"5779","PERIAPSIS":"545.688","COUNTRY_CODE":"US","OBJECT_TYPE":"PAYLOAD","ELEMENT_SET_NO":"999","BSTAR":"0.00004832800000","CLASSIFICATION_TYPE":"U","APOAPSIS":"548.759","TLE_LINE1":"1 48370U 21038T   22136.67929264  .00000438  00000-0  48328-4 0  9999","MEAN_ELEMENT_THEORY":"SGP4","FILE":"3448797","EPHEMERIS_TYPE":"0","MEAN_MOTION":"15.06396799","SEMIMAJOR_AXIS":"6925.358","ECCENTRICITY":"0.00022170","PERIOD":"95.592","MEAN_MOTION_DOT":"0.00000438","TIME_SYSTEM":"UTC","EPOCH":"2022-05-16T16:18:10.884096","MEAN_MOTION_DDOT":"0.0000000000000","ARG_OF_PERICENTER":"41.1220"},{"MEAN_ANOMALY":"308.0805","DECAY_DATE":null,"CENTER_NAME":"EARTH","NORAD_CAT_ID":"48371","INCLINATION":"53.0527","GP_ID":"203705358","LAUNCH_DATE":"2021-05-04","RA_OF_ASC_NODE":"126.3040","SITE":"AFETR","TLE_LINE2":"2 48371  53.0527 126.3040 0002025  52.0367 308.0805 15.06406298 57754","OBJECT_NAME":"STARLINK-2589","OBJECT_ID":"2021-038U","REF_FRAME":"TEME","RCS_SIZE":"LARGE","CLASSIFICATION_TYPE":"U","BSTAR":"0.00015148000000","ELEMENT_SET_NO":"999","PERIAPSIS":"545.792","COUNTRY_CODE":"US","OBJECT_TYPE":"PAYLOAD","REV_AT_EPOCH":"5775","EPHEMERIS_TYPE":"0","FILE":"3448797","MEAN_ELEMENT_THEORY":"SGP4","TLE_LINE1":"1 48371U 21038U   22136.41021301  .00001976  00000-0  15148-3 0  9998","APOAPSIS":"548.597","ECCENTRICITY":"0.00020250","PERIOD":"95.592","SEMIMAJOR_AXIS":"6925.329","MEAN_MOTION":"15.06406298","MEAN_MOTION_DDOT":"0.0000000000000","ARG_OF_PERICENTER":"52.0367","EPOCH":"2022-05-16T09:50:42.404064","TIME_SYSTEM":"UTC","MEAN_MOTION_DOT":"0.00001976"},{"MEAN_MOTION":"15.06396402","SEMIMAJOR_AXIS":"6925.360","ECCENTRICITY":"0.00022730","PERIOD":"95.592","ARG_OF_PERICENTER":"39.2111","MEAN_MOTION_DDOT":"0.0000000000000","MEAN_MOTION_DOT":"0.00001262","EPOCH":"2022-05-16T16:07:34.455648","TIME_SYSTEM":"UTC","FILE":"3448825","EPHEMERIS_TYPE":"0","MEAN_ELEMENT_THEORY":"SGP4","APOAPSIS":"548.799","TLE_LINE1":"1 48372U 21038V   22136.67192657  .00001262  00000-0  10361-3 0  9990","SITE":"AFETR","TLE_LINE2":"2 48372  53.0543 125.1290 0002273  39.2111 320.9042 15.06396402 57791","RA_OF_ASC_NODE":"125.1290","RCS_SIZE":"LARGE","OBJECT_ID":"2021-038V","REF_FRAME":"TEME","OBJECT_NAME":"STARLINK-2572","BSTAR":"0.00010361000000","ELEMENT_SET_NO":"999","CLASSIFICATION_TYPE":"U","REV_AT_EPOCH":"5779","COUNTRY_CODE":"US","OBJECT_TYPE":"PAYLOAD","PERIAPSIS":"545.650","DECAY_DATE":null,"MEAN_ANOMALY":"320.9042","CENTER_NAME":"EARTH","INCLINATION":"53.0543","GP_ID":"203706102","LAUNCH_DATE":"2021-05-04","NORAD_CAT_ID":"48372"},{"REF_FRAME":"TEME","OBJECT_ID":"2021-038W","RCS_SIZE":"LARGE","OBJECT_NAME":"STARLINK-2609","RA_OF_ASC_NODE":"126.9297","TLE_LINE2":"2 48373  53.0514 126.9297 0001849  63.2552 296.8626 15.06408150 57142","SITE":"AFETR","REV_AT_EPOCH":"5714","PERIAPSIS":"545.908","COUNTRY_CODE":"US","OBJECT_TYPE":"PAYLOAD","BSTAR":"0.00025772000000","ELEMENT_SET_NO":"999","CLASSIFICATION_TYPE":"U","MEAN_ANOMALY":"296.8626","DECAY_DATE":null,"LAUNCH_DATE":"2021-05-04","GP_ID":"203698123","INCLINATION":"53.0514","NORAD_CAT_ID":"48373","CENTER_NAME":"EARTH","MEAN_MOTION":"15.06408150","PERIOD":"95.592","ECCENTRICITY":"0.00018490","SEMIMAJOR_AXIS":"6925.324","MEAN_MOTION_DOT":"0.00003560","EPOCH":"2022-05-16T06:29:00.665376","TIME_SYSTEM":"UTC","MEAN_MOTION_DDOT":"0.0000000000000","ARG_OF_PERICENTER":"63.2552","TLE_LINE1":"1 48373U 21038W   22136.27014659  .00003560  00000-0  25772-3 0  9997","APOAPSIS":"548.469","MEAN_ELEMENT_THEORY":"SGP4","FILE":"3448591","EPHEMERIS_TYPE":"0"},{"MEAN_MOTION_DOT":"0.00000459","TIME_SYSTEM":"UTC","EPOCH":"2022-05-16T09:34:47.387712","ARG_OF_PERICENTER":"49.9203","MEAN_MOTION_DDOT":"0.0000000000000","MEAN_MOTION":"15.06395862","PERIOD":"95.592","ECCENTRICITY":"0.00021180","SEMIMAJOR_AXIS":"6925.361","TLE_LINE1":"1 48374U 21038X   22136.39915958  .00000459  00000-0  49699-4 0  9992","APOAPSIS":"548.693","FILE":"3448591","EPHEMERIS_TYPE":"0","MEAN_ELEMENT_THEORY":"SGP4","REV_AT_EPOCH":"5716","COUNTRY_CODE":"US","PERIAPSIS":"545.759","OBJECT_TYPE":"PAYLOAD","BSTAR":"0.00004969900000","ELEMENT_SET_NO":"999","CLASSIFICATION_TYPE":"U","REF_FRAME":"TEME","OBJECT_ID":"2021-038X","RCS_SIZE":"LARGE","OBJECT_NAME":"STARLINK-2604","RA_OF_ASC_NODE":"126.3506","TLE_LINE2":"2 48374  53.0536 126.3506 0002118  49.9203 310.1972 15.06395862 57169","SITE":"AFETR","GP_ID":"203697381","LAUNCH_DATE":"2021-05-04","INCLINATION":"53.0536","NORAD_CAT_ID":"48374","CENTER_NAME":"EARTH","MEAN_ANOMALY":"310.1972","DECAY_DATE":null}];
